FLOCK 4S-35             
1 47473U 21006BN  23242.12891203  .00352251  00000+0  18448-2 0  9997
2 47473  97.3672 308.5409 0008986 226.4991 133.5530 15.79817634144554
FLOCK 4S-8              
1 47474U 21006BP  23242.41433982  .00027951  00000+0  60588-3 0  9995
2 47474  97.3712 301.4048 0006234 185.0962 175.0224 15.44366483144153
FLOCK 4S-31             
1 47475U 21006BQ  23241.74083191  .00022959  00000+0  54550-3 0  9999
2 47475  97.3769 301.9109 0005449 158.8670 201.2803 15.41667220144122
FLOCK 4S-34             
1 47477U 21006BS  23241.73914905  .00012670  00000+0  41001-3 0  9992
2 47477  97.3845 300.2828 0005273 170.9979 189.1358 15.32170959143969
FLOCK 4S-9              
1 47478U 21006BT  23241.69137210  .00010279  00000+0  33580-3 0  9990
2 47478  97.3802 299.5295 0005706 176.0055 184.1233 15.31919355143950
FLOCK 4S-39             
1 47490U 21006CF  23241.64876169  .00013427  00000+0  43543-3 0  9990
2 47490  97.3891 300.8618 0007320 162.8969 197.2521 15.32077579143968
FLOCK 4S-4              
1 47491U 21006CG  23242.09393286  .00012593  00000+0  40819-3 0  9991
2 47491  97.3756 299.8280 0007631 159.7486 200.4060 15.32105238144033
FLOCK 4S-17             
1 47492U 21006CH  23241.72149825  .00012821  00000+0  41748-3 0  9995
2 47492  97.3913 301.0420 0007806 165.0035 195.1439 15.31952682143979
FLOCK 4S-3              
1 47494U 21006CK  23241.69704664  .00029321  00000+0  60943-3 0  9992
2 47494  97.3700 301.1585 0007236 175.8636 184.2674 15.45589695144089
FLOCK 4S-27             
1 47495U 21006CL  23242.13096741  .00013775  00000+0  48121-3 0  9993
2 47495  97.3750 299.1097 0008358 181.4734 178.6483 15.29652876143984
FLOCK 4S-18             
1 47496U 21006CM  23241.95972394  .00011700  00000+0  37972-3 0  9998
2 47496  97.3882 301.1169 0008759 168.6121 191.5320 15.32074951144012
FLOCK 4S-2              
1 47498U 21006CP  23242.17824972  .00046249  00000+0  61959-3 0  9991
2 47498  97.3654 305.2120 0007018 180.4757 179.6493 15.57830393144393
FLOCK 4S-19             
1 47500U 21006CR  23241.75563810  .00012335  00000+0  40021-3 0  9995
2 47500  97.3874 300.9009 0008536 166.2762 193.8713 15.32072870143981
FLOCK 4S-28             
1 47514U 21006DE  23242.10880579  .00012381  00000+0  40282-3 0  9994
2 47514  97.3769 299.7085 0006467 168.4973 191.6418 15.31998642144989
FLOCK 4S-5              
1 47515U 21006DF  23242.15186738  .00012269  00000+0  39347-3 0  9991
2 47515  97.3758 299.7054 0007236 165.5036 194.6415 15.32456458144038
FLOCK 4S-16             
1 47516U 21006DG  23241.73040515  .00023789  00000+0  47287-3 0  9998
2 47516  97.3858 304.1464 0007565 164.2245 195.9242 15.46932248145156
FLOCK 4S-6              
1 47518U 21006DJ  23242.09592957  .00012887  00000+0  41507-3 0  9998
2 47518  97.3785 299.8276 0006527 176.7953 183.3331 15.32312904144996
FLOCK 4S-29             
1 47520U 21006DL  23242.13024375  .00034910  00000+0  10349-2 0  9990
2 47520  97.3771 299.9854 0007095 172.0625 188.0732 15.34737199144034
FLOCK 4S-15             
1 47521U 21006DM  23242.06941047  .00029385  00000+0  60784-3 0  9996
2 47521  97.3831 302.9167 0006225 186.1462 173.9712 15.45737509145111
FLOCK 4S-37             
1 47522U 21006DN  23241.72293710  .00013106  00000+0  42480-3 0  9993
2 47522  97.3872 300.5556 0005647 173.2356 186.8963 15.32111247144930
FLOCK 4S-10             
1 47523U 21006DP  23242.16252746  .00014569  00000+0  47013-3 0  9998
2 47523  97.3817 300.1024 0005636 177.1539 182.9736 15.32226719144026
FLOCK 4S-7              
1 47527U 21006DT  23242.12567443  .00012485  00000+0  40619-3 0  9991
2 47527  97.3775 299.7675 0005905 170.8544 189.2806 15.32000514144989
FLOCK 4S-14             
1 47528U 21006DU  23241.74142150  .00012570  00000+0  40897-3 0  9996
2 47528  97.3876 300.5681 0005883 173.0444 187.0880 15.31996449144921
FLOCK 4S-36             
1 47530U 21006DW  23242.12304285  .00013397  00000+0  43420-3 0  9994
2 47530  97.3864 300.8448 0005956 171.4233 188.7112 15.32105817144988
FLOCK 4S-24             
1 47539U 21006DZ  23242.13667307  .00011856  00000+0  38495-3 0  9995
2 47539  97.3804 300.4712 0008310 160.3266 199.8297 15.32060556144045
FLOCK 4S-20             
1 47540U 21006EA  23241.74390923  .00011386  00000+0  37082-3 0  9999
2 47540  97.3868 300.7787 0008143 164.3117 195.8379 15.31974293143053
FLOCK 4S-25             
1 47542U 21006EC  23242.12219710  .00012112  00000+0  39136-3 0  9998
2 47542  97.3783 300.2232 0008294 164.4207 195.7292 15.32210713143110
FLOCK 4S-1              
1 47543U 21006ED  23241.70995844  .00016582  00000+0  52374-3 0  9995
2 47543  97.3793 299.8791 0008290 158.2814 201.8781 15.32866881143054
FLOCK 4S-30             
1 47544U 21006EE  23242.11238135  .00011944  00000+0  38820-3 0  9992
2 47544  97.3790 299.9360 0005703 169.8754 190.2604 15.32045287144989
FLOCK 4S-23             
1 47545U 21006EF  23242.11839192  .00043117  00000+0  68939-3 0  9994
2 47545  97.3739 304.6178 0007753 178.6722 181.4553 15.53007220145281
FLOCK 4S-42             
1 47612U 21006EQ  23241.72079515  .00012911  00000+0  41858-3 0  9999
2 47612  97.3844 300.4069 0007783 176.4810 183.6488 15.32092729143973
FLOCK 4S-48             
1 47617U 21006EJ  23242.13514781  .00011346  00000+0  36605-3 0  9994
2 47617  97.3830 300.9292 0009100 157.2402 202.9245 15.32272215145029
FLOCK 4S-46             
1 47684U 21006EK  23241.70253285  .00011689  00000+0  38043-3 0  9997
2 47684  97.3851 300.4444 0005323 182.7065 177.4149 15.32007127143981
FLOCK 4S-47             
1 47685U 21006EL  23242.14640503  .00010252  00000+0  33402-3 0  9999
2 47685  97.3800 300.1921 0005745 172.3221 187.8110 15.32007678144020
FLOCK 4S-44             
1 47686U 21006EM  23241.67920144  .00011664  00000+0  37628-3 0  9991
2 47686  97.3849 300.5624 0009228 174.8168 185.3171 15.32264198143970
FLOCK 4S-43             
1 47687U 21006EN  23241.69099731  .00014337  00000+0  46576-3 0  9995
2 47687  97.3814 299.7647 0004494 186.3645 173.7541 15.32020061144911
FLOCK 4S-45             
1 47688U 21006EP  23241.69887001  .00012123  00000+0  39401-3 0  9991
2 47688  97.3834 299.9244 0008391 154.9958 205.1692 15.32022306144918
FLOCK 4S-41             
1 47698U 21006ER  23241.71783586  .00012020  00000+0  39039-3 0  9991
2 47698  97.3897 300.8166 0007449 167.9040 192.2382 15.32054786143965
FLOCK 4X-8              
1 50992U 22002J   23242.15768778  .00011848  00000+0  40813-3 0  9993
2 50992  97.4354 310.6832 0007435 346.6128  13.4914 15.30157930 90141
FLOCK 4X-44             
1 50994U 22002L   23241.96199216  .00012103  00000+0  41333-3 0  9991
2 50994  97.4359 310.6267 0007279 343.8518  16.2490 15.30433711 90119
FLOCK 4X-2              
1 50996U 22002N   23242.16846197  .00011242  00000+0  38823-3 0  9996
2 50996  97.4356 310.7510 0007302 345.2860  14.8167 15.30090628 90147
FLOCK 4X-20             
1 50997U 22002P   23242.15368227  .00012707  00000+0  43560-3 0  9990
2 50997  97.4355 310.7554 0007453 345.9241  14.1791 15.30298235 90142
FLOCK 4X-30             
1 51000U 22002S   23241.76757918  .00012017  00000+0  41337-3 0  9995
2 51000  97.4303 309.9352 0007198 336.2174  23.8733 15.30201074 90082
FLOCK 4X-22             
1 51003U 22002V   23242.14246075  .00016986  00000+0  57866-3 0  9991
2 51003  97.4339 310.6479 0007613 348.4529  11.6535 15.30431873 90148
FLOCK 4X-5              
1 51004U 22002W   23241.75673190  .00011866  00000+0  40854-3 0  9991
2 51004  97.4316 310.0299 0007678 338.5567  21.5351 15.30170309 90084
FLOCK 4X-41             
1 51005U 22002X   23242.07295184  .00011926  00000+0  40884-3 0  9991
2 51005  97.4296 310.2429 0007054 334.2820  25.8069 15.30315336 90132
FLOCK 4X-3              
1 51006U 22002Y   23242.13270268  .00012478  00000+0  42640-3 0  9990
2 51006  97.4354 310.7718 0007742 343.1198  16.9784 15.30403059 90141
FLOCK 4X-18             
1 51007U 22002Z   23242.42335907  .00010210  00000+0  34332-3 0  9996
2 51007  97.4297 310.8195 0008869 331.3351  28.7402 15.30969927 90193
FLOCK 4X-37             
1 51009U 22002AB  23241.74632267  .00012099  00000+0  41475-3 0  9994
2 51009  97.4362 310.4333 0008055 343.6480  16.4500 15.30305685 90080
FLOCK 4X-15             
1 51010U 22002AC  23242.18860283  .00019211  00000+0  58584-3 0  9998
2 51010  97.4351 311.3925 0008076 319.0212  41.0423 15.33958420 90183
FLOCK 4X-29             
1 51011U 22002AD  23241.74778284  .00011577  00000+0  39790-3 0  9994
2 51011  97.4333 310.0647 0007624 339.4555  20.6378 15.30235697 90087
FLOCK 4X-12             
1 51015U 22002AH  23241.75691031  .00010889  00000+0  37733-3 0  9993
2 51015  97.4350 310.3367 0008619 340.3302  19.7604 15.29978176 90083
FLOCK 4X-25             
1 51016U 22002AJ  23242.17759096  .00014657  00000+0  49262-3 0  9994
2 51016  97.4321 310.7014 0007868 346.6083  13.4948 15.30900595 90157
FLOCK 4X-1              
1 51017U 22002AK  23241.74796450  .00012000  00000+0  41399-3 0  9995
2 51017  97.4319 310.0768 0008181 339.8309  20.2607 15.30100000 90081
FLOCK 4X-42             
1 51018U 22002AL  23241.75073051  .00010885  00000+0  37544-3 0  9998
2 51018  97.4299 309.9484 0007763 336.6662  23.4225 15.30136288 90081
FLOCK 4X-16             
1 51020U 22002AN  23242.19538194  .00011746  00000+0  40316-3 0  9992
2 51020  97.4311 310.4677 0007691 333.8364  26.2487 15.30274746 90159
FLOCK 4X-38             
1 51023U 22002AR  23242.13617199  .00011768  00000+0  40553-3 0  9999
2 51023  97.4356 310.7843 0008221 340.0174  20.0743 15.30139813 90149
FLOCK 4X-32             
1 51024U 22002AS  23241.74643418  .00009982  00000+0  34587-3 0  9994
2 51024  97.4368 310.4336 0008183 339.1083  20.9822 15.30006568 90082
FLOCK 4X-26             
1 51026U 22002AU  23241.72564548  .00013033  00000+0  44674-3 0  9990
2 51026  97.4321 310.1201 0008258 344.5849  15.5138 15.30287240 90082
FLOCK 4X-43             
1 51027U 22002AV  23242.12545520  .00011953  00000+0  41076-3 0  9997
2 51027  97.4313 310.4653 0007804 334.3229  25.7623 15.30230546 90149
